{
  "type": "FeatureCollection",
  "features": [
    {
      "type": "Feature",
      "id": "70096",
      "geometry": {
        "type": "Point",
        "coordinates": [
          174.996,
          -35
        ]
      },
      "properties": {
        "addr:housenumber": "96",
        "addr:street": "Example Street",
        "addr:suburb": "Duplicate Tall Hamlet",
        "ref:linz:address_id": "70096"
      }
    },
    {
      "type": "Feature",
      "id": "70097",
      "geometry": {
        "type": "Point",
        "coordinates": [
          174.997,
          -36.9
        ]
      },
      "properties": {
        "addr:housenumber": "97",
        "addr:street": "Example Street",
        "addr:suburb": "Duplicate Tall Hamlet",
        "ref:linz:address_id": "70097"
      }
    }
  ],
  "bbox": {
    "minLat": -36.9,
    "minLng": 174.996,
    "maxLat": -35,
    "maxLng": 174.997
  },
  "changesetTags": {
    "attribution": "https://wiki.openstreetmap.org/wiki/Contributors#LINZ",
    "created_by": "LINZ Data Import 2.0.0",
    "locale": "en-NZ",
    "source": "https://wiki.osm.org/LINZ",
    "comment": "Address Update - Duplicate Tall Hamlet"
  }
}